[{"OBJECT_NAME":"AETHER-1","OBJECT_ID":"2023-174AB","EPOCH":"2026-03-09T17:17:51.429696","MEAN_MOTION":15.59029667,"ECCENTRICITY":0.00048301,"INCLINATION":97.3866,"RA_OF_ASC_NODE":157.5943,"ARG_OF_PERICENTER":156.7796,"MEAN_ANOMALY":203.368,"EPHEMERIS_TYPE":0,"CLASSIFICATION_TYPE":"U","NORAD_CAT_ID":58281,"ELEMENT_SET_NO":999,"REV_AT_EPOCH":13035,"BSTAR":0.0011500755,"MEAN_MOTION_DOT":0.00090327,"MEAN_MOTION_DDOT":0},{"OBJECT_NAME":"HADES-ICM","OBJECT_ID":"2025-052BN","EPOCH":"2026-03-09T16:44:43.821024","MEAN_MOTION":15.5687434,"ECCENTRICITY":0.00089133,"INCLINATION":97.3947,"RA_OF_ASC_NODE":329.1452,"ARG_OF_PERICENTER":110.6367,"MEAN_ANOMALY":249.5845,"EPHEMERIS_TYPE":0,"CLASSIFICATION_TYPE":"U","NORAD_CAT_ID":63492,"ELEMENT_SET_NO":999,"REV_AT_EPOCH":5514,"BSTAR":0.0018517486,"MEAN_MOTION_DOT":0.00135148,"MEAN_MOTION_DDOT":0}]
