AETHER-1                
1 58281U 23174AB  26068.72073414  .00090327  00000+0  11501-2 0  9991
2 58281  97.3866 157.5943 0004830 156.7796 203.3680 15.59029667130359
HADES-ICM               
1 63492U 25052BN  26068.69772940  .00135148  00000+0  18517-2 0  9999
2 63492  97.3947 329.1452 0008913 110.6367 249.5845 15.56874340 55141
